[{"OBJECT_NAME":"STARLINK-31488","OBJECT_ID":"2024-036M","EPOCH":"2025-08-16T09:17:09.786912","MEAN_MOTION":15.30189666,"ECCENTRICITY":0.000106,"INCLINATION":53.1605,"RA_OF_ASC_NODE":311.5141,"ARG_OF_PERICENTER":77.845,"MEAN_ANOMALY":282.267,"EPHEMERIS_TYPE":0,"CLASSIFICATION_TYPE":"U","NORAD_CAT_ID":59009,"ELEMENT_SET_NO":999,"REV_AT_EPOCH":8390,"BSTAR":-5.7557e-5,"MEAN_MOTION_DOT":-2.063e-5,"MEAN_MOTION_DDOT":0},{"OBJECT_NAME":"STARLINK-31528","OBJECT_ID":"2024-036N","EPOCH":"2025-08-15T12:39:26.360352","MEAN_MOTION":15.30179756,"ECCENTRICITY":0.0001036,"INCLINATION":53.1606,"RA_OF_ASC_NODE":316.0984,"ARG_OF_PERICENTER":75.5741,"MEAN_ANOMALY":284.5375,"EPHEMERIS_TYPE":0,"CLASSIFICATION_TYPE":"U","NORAD_CAT_ID":59010,"ELEMENT_SET_NO":999,"REV_AT_EPOCH":8377,"BSTAR":-8.5729e-6,"MEAN_MOTION_DOT":-6.13e-6,"MEAN_MOTION_DDOT":0},{"OBJECT_NAME":"STARLINK-31491","OBJECT_ID":"2024-036P","EPOCH":"2025-08-16T09:03:37.979424","MEAN_MOTION":15.30195622,"ECCENTRICITY":0.0001068,"INCLINATION":53.1611,"RA_OF_ASC_NODE":312.1639,"ARG_OF_PERICENTER":88.6457,"MEAN_ANOMALY":271.4666,"EPHEMERIS_TYPE":0,"CLASSIFICATION_TYPE":"U","NORAD_CAT_ID":59011,"ELEMENT_SET_NO":999,"REV_AT_EPOCH":8389,"BSTAR":4.5036e-5,"MEAN_MOTION_DOT":9.75e-6,"MEAN_MOTION_DDOT":0},{"OBJECT_NAME":"STARLINK-31465","OBJECT_ID":"2024-036Q","EPOCH":"2025-08-16T08:56:02.762880","MEAN_MOTION":15.30191266,"ECCENTRICITY":0.000123,"INCLINATION":53.1592,"RA_OF_ASC_NODE":312.1307,"ARG_OF_PERICENTER":61.9692,"MEAN_ANOMALY":298.1433,"EPHEMERIS_TYPE":0,"CLASSIFICATION_TYPE":"U","NORAD_CAT_ID":59012,"ELEMENT_SET_NO":999,"REV_AT_EPOCH":8389,"BSTAR":0.00012193,"MEAN_MOTION_DOT":3.253e-5,"MEAN_MOTION_DDOT":0},{"OBJECT_NAME":"STARLINK-31389","OBJECT_ID":"2024-036R","EPOCH":"2025-08-15T11:03:51.751296","MEAN_MOTION":15.30183901,"ECCENTRICITY":0.0001229,"INCLINATION":53.1602,"RA_OF_ASC_NODE":316.3908,"ARG_OF_PERICENTER":67.9895,"MEAN_ANOMALY":292.1236,"EPHEMERIS_TYPE":0,"CLASSIFICATION_TYPE":"U","NORAD_CAT_ID":59013,"ELEMENT_SET_NO":999,"REV_AT_EPOCH":8380,"BSTAR":5.3092e-6,"MEAN_MOTION_DOT":-2.02e-6,"MEAN_MOTION_DDOT":0},{"OBJECT_NAME":"STARLINK-31454","OBJECT_ID":"2024-036S","EPOCH":"2025-08-16T05:43:22.081728","MEAN_MOTION":15.30192119,"ECCENTRICITY":0.0001195,"INCLINATION":53.1607,"RA_OF_ASC_NODE":312.718,"ARG_OF_PERICENTER":77.49,"MEAN_ANOMALY":282.6235,"EPHEMERIS_TYPE":0,"CLASSIFICATION_TYPE":"U","NORAD_CAT_ID":59014,"ELEMENT_SET_NO":999,"REV_AT_EPOCH":8387,"BSTAR":6.9635e-5,"MEAN_MOTION_DOT":1.703e-5,"MEAN_MOTION_DDOT":0},{"OBJECT_NAME":"STARLINK-31521","OBJECT_ID":"2024-036T","EPOCH":"2025-08-16T05:41:50.940960","MEAN_MOTION":15.30193268,"ECCENTRICITY":0.0001363,"INCLINATION":53.1603,"RA_OF_ASC_NODE":312.7073,"ARG_OF_PERICENTER":78.9705,"MEAN_ANOMALY":281.1449,"EPHEMERIS_TYPE":0,"CLASSIFICATION_TYPE":"U","NORAD_CAT_ID":59015,"ELEMENT_SET_NO":999,"REV_AT_EPOCH":8387,"BSTAR":6.4302e-5,"MEAN_MOTION_DOT":1.545e-5,"MEAN_MOTION_DDOT":0},{"OBJECT_NAME":"STARLINK-31526","OBJECT_ID":"2024-036U","EPOCH":"2025-08-16T08:49:52.527648","MEAN_MOTION":15.30194591,"ECCENTRICITY":8.81e-5,"INCLINATION":53.1588,"RA_OF_ASC_NODE":286.4873,"ARG_OF_PERICENTER":67.323,"MEAN_ANOMALY":292.7864,"EPHEMERIS_TYPE":0,"CLASSIFICATION_TYPE":"U","NORAD_CAT_ID":59016,"ELEMENT_SET_NO":999,"REV_AT_EPOCH":8426,"BSTAR":2.3332e-6,"MEAN_MOTION_DOT":-2.9e-6,"MEAN_MOTION_DDOT":0},{"OBJECT_NAME":"STARLINK-31406","OBJECT_ID":"2024-036V","EPOCH":"2025-08-15T22:36:58.497408","MEAN_MOTION":15.39612287,"ECCENTRICITY":0.0001312,"INCLINATION":53.1619,"RA_OF_ASC_NODE":303.7787,"ARG_OF_PERICENTER":86.1979,"MEAN_ANOMALY":273.9175,"EPHEMERIS_TYPE":0,"CLASSIFICATION_TYPE":"U","NORAD_CAT_ID":59017,"ELEMENT_SET_NO":999,"REV_AT_EPOCH":8397,"BSTAR":-1.9488e-5,"MEAN_MOTION_DOT":-1.178e-5,"MEAN_MOTION_DDOT":0},{"OBJECT_NAME":"STARLINK-31527","OBJECT_ID":"2024-036W","EPOCH":"2025-08-15T12:13:35.997888","MEAN_MOTION":15.30189375,"ECCENTRICITY":0.000114,"INCLINATION":53.1617,"RA_OF_ASC_NODE":315.9929,"ARG_OF_PERICENTER":96.8276,"MEAN_ANOMALY":263.2855,"EPHEMERIS_TYPE":0,"CLASSIFICATION_TYPE":"U","NORAD_CAT_ID":59018,"ELEMENT_SET_NO":999,"REV_AT_EPOCH":8377,"BSTAR":-2.3922e-5,"MEAN_MOTION_DOT":-1.067e-5,"MEAN_MOTION_DDOT":0},{"OBJECT_NAME":"STARLINK-31436","OBJECT_ID":"2024-036X","EPOCH":"2025-08-16T09:05:09.286944","MEAN_MOTION":15.30196912,"ECCENTRICITY":0.0001198,"INCLINATION":53.1602,"RA_OF_ASC_NODE":312.1651,"ARG_OF_PERICENTER":82.8044,"MEAN_ANOMALY":277.3093,"EPHEMERIS_TYPE":0,"CLASSIFICATION_TYPE":"U","NORAD_CAT_ID":59019,"ELEMENT_SET_NO":999,"REV_AT_EPOCH":8389,"BSTAR":8.1685e-5,"MEAN_MOTION_DOT":2.061e-5,"MEAN_MOTION_DDOT":0},{"OBJECT_NAME":"STARLINK-30996","OBJECT_ID":"2024-038A","EPOCH":"2025-08-16T08:21:26.982144","MEAN_MOTION":15.25907237,"ECCENTRICITY":0.0001168,"INCLINATION":42.9993,"RA_OF_ASC_NODE":106.6971,"ARG_OF_PERICENTER":268.3532,"MEAN_ANOMALY":91.7185,"EPHEMERIS_TYPE":0,"CLASSIFICATION_TYPE":"U","NORAD_CAT_ID":59023,"ELEMENT_SET_NO":999,"REV_AT_EPOCH":8338,"BSTAR":4.8328e-5,"MEAN_MOTION_DOT":1.007e-5,"MEAN_MOTION_DDOT":0},{"OBJECT_NAME":"STARLINK-31006","OBJECT_ID":"2024-038B","EPOCH":"2025-08-15T19:21:55.090368","MEAN_MOTION":15.27594721,"ECCENTRICITY":0.0001252,"INCLINATION":43.003,"RA_OF_ASC_NODE":59.3212,"ARG_OF_PERICENTER":303.2287,"MEAN_ANOMALY":56.8445,"EPHEMERIS_TYPE":0,"CLASSIFICATION_TYPE":"U","NORAD_CAT_ID":59024,"ELEMENT_SET_NO":999,"REV_AT_EPOCH":8385,"BSTAR":0.00016831,"MEAN_MOTION_DOT":4.374e-5,"MEAN_MOTION_DDOT":0},{"OBJECT_NAME":"STARLINK-31178","OBJECT_ID":"2024-038C","EPOCH":"2025-08-16T02:01:09.536160","MEAN_MOTION":15.25907283,"ECCENTRICITY":0.0001244,"INCLINATION":42.9989,"RA_OF_ASC_NODE":108.1559,"ARG_OF_PERICENTER":265.0341,"MEAN_ANOMALY":95.0367,"EPHEMERIS_TYPE":0,"CLASSIFICATION_TYPE":"U","NORAD_CAT_ID":59025,"ELEMENT_SET_NO":999,"REV_AT_EPOCH":8305,"BSTAR":0.00010855,"MEAN_MOTION_DOT":2.583e-5,"MEAN_MOTION_DDOT":0},{"OBJECT_NAME":"STARLINK-31227","OBJECT_ID":"2024-038D","EPOCH":"2025-08-16T01:51:24.989184","MEAN_MOTION":15.2758374,"ECCENTRICITY":0.0001477,"INCLINATION":42.9993,"RA_OF_ASC_NODE":108.1103,"ARG_OF_PERICENTER":274.3802,"MEAN_ANOMALY":85.6881,"EPHEMERIS_TYPE":0,"CLASSIFICATION_TYPE":"U","NORAD_CAT_ID":59026,"ELEMENT_SET_NO":999,"REV_AT_EPOCH":8331,"BSTAR":7.0315e-5,"MEAN_MOTION_DOT":1.673e-5,"MEAN_MOTION_DDOT":0},{"OBJECT_NAME":"STARLINK-30863","OBJECT_ID":"2024-038E","EPOCH":"2025-08-16T09:19:53.140800","MEAN_MOTION":15.25907388,"ECCENTRICITY":0.0001147,"INCLINATION":43.0031,"RA_OF_ASC_NODE":106.1358,"ARG_OF_PERICENTER":275.5113,"MEAN_ANOMALY":84.5607,"EPHEMERIS_TYPE":0,"CLASSIFICATION_TYPE":"U","NORAD_CAT_ID":59027,"ELEMENT_SET_NO":999,"REV_AT_EPOCH":8326,"BSTAR":-4.1936e-5,"MEAN_MOTION_DOT":-1.354e-5,"MEAN_MOTION_DDOT":0},{"OBJECT_NAME":"STARLINK-31206","OBJECT_ID":"2024-038F","EPOCH":"2025-08-15T18:32:50.165376","MEAN_MOTION":15.27574082,"ECCENTRICITY":0.0001376,"INCLINATION":43.0005,"RA_OF_ASC_NODE":44.9212,"ARG_OF_PERICENTER":274.3139,"MEAN_ANOMALY":85.7555,"EPHEMERIS_TYPE":0,"CLASSIFICATION_TYPE":"U","NORAD_CAT_ID":59028,"ELEMENT_SET_NO":999,"REV_AT_EPOCH":8403,"BSTAR":-1.5449e-6,"MEAN_MOTION_DOT":-3.05e-6,"MEAN_MOTION_DDOT":0},{"OBJECT_NAME":"STARLINK-31224","OBJECT_ID":"2024-038G","EPOCH":"2025-08-16T00:06:09.544896","MEAN_MOTION":15.27593795,"ECCENTRICITY":0.0001506,"INCLINATION":43.0026,"RA_OF_ASC_NODE":108.4275,"ARG_OF_PERICENTER":271.9926,"MEAN_ANOMALY":88.0754,"EPHEMERIS_TYPE":0,"CLASSIFICATION_TYPE":"U","NORAD_CAT_ID":59029,"ELEMENT_SET_NO":999,"REV_AT_EPOCH":8330,"BSTAR":-0.00010788,"MEAN_MOTION_DOT":-3.231e-5,"MEAN_MOTION_DDOT":0},{"OBJECT_NAME":"STARLINK-31186","OBJECT_ID":"2024-038H","EPOCH":"2025-08-15T22:39:36.660384","MEAN_MOTION":15.2590562,"ECCENTRICITY":9.75e-5,"INCLINATION":43.0004,"RA_OF_ASC_NODE":108.8359,"ARG_OF_PERICENTER":269.5948,"MEAN_ANOMALY":90.4791,"EPHEMERIS_TYPE":0,"CLASSIFICATION_TYPE":"U","NORAD_CAT_ID":59030,"ELEMENT_SET_NO":999,"REV_AT_EPOCH":8329,"BSTAR":1.1728e-5,"MEAN_MOTION_DOT":4.9e-7,"MEAN_MOTION_DDOT":0},{"OBJECT_NAME":"STARLINK-31211","OBJECT_ID":"2024-038J","EPOCH":"2025-08-16T09:23:42.830016","MEAN_MOTION":15.27564499,"ECCENTRICITY":0.0001362,"INCLINATION":43.0012,"RA_OF_ASC_NODE":106.1734,"ARG_OF_PERICENTER":278.2673,"MEAN_ANOMALY":81.8024,"EPHEMERIS_TYPE":0,"CLASSIFICATION_TYPE":"U","NORAD_CAT_ID":59031,"ELEMENT_SET_NO":999,"REV_AT_EPOCH":8326,"BSTAR":-3.5999e-5,"MEAN_MOTION_DOT":-1.252e-5,"MEAN_MOTION_DDOT":0},{"OBJECT_NAME":"STARLINK-30862","OBJECT_ID":"2024-038K","EPOCH":"2025-08-15T23:33:06.833376","MEAN_MOTION":15.27572556,"ECCENTRICITY":0.0001316,"INCLINATION":43.0012,"RA_OF_ASC_NODE":97.9017,"ARG_OF_PERICENTER":283.1426,"MEAN_ANOMALY":76.9279,"EPHEMERIS_TYPE":0,"CLASSIFICATION_TYPE":"U","NORAD_CAT_ID":59032,"ELEMENT_SET_NO":999,"REV_AT_EPOCH":8331,"BSTAR":2.3786e-5,"MEAN_MOTION_DOT":3.92e-6,"MEAN_MOTION_DDOT":0},{"OBJECT_NAME":"STARLINK-31210","OBJECT_ID":"2024-038L","EPOCH":"2025-08-16T08:27:15.469632","MEAN_MOTION":15.2756871,"ECCENTRICITY":8.38e-5,"INCLINATION":42.9998,"RA_OF_ASC_NODE":103.2808,"ARG_OF_PERICENTER":273.302,"MEAN_ANOMALY":86.7736,"EPHEMERIS_TYPE":0,"CLASSIFICATION_TYPE":"U","NORAD_CAT_ID":59033,"ELEMENT_SET_NO":999,"REV_AT_EPOCH":8345,"BSTAR":-1.7887e-6,"MEAN_MOTION_DOT":-3.11e-6,"MEAN_MOTION_DDOT":0},{"OBJECT_NAME":"STARLINK-31231","OBJECT_ID":"2024-038M","EPOCH":"2025-08-16T08:21:42.157440","MEAN_MOTION":15.2757494,"ECCENTRICITY":0.0001287,"INCLINATION":42.9995,"RA_OF_ASC_NODE":103.2507,"ARG_OF_PERICENTER":269.6076,"MEAN_ANOMALY":90.4628,"EPHEMERIS_TYPE":0,"CLASSIFICATION_TYPE":"U","NORAD_CAT_ID":59034,"ELEMENT_SET_NO":999,"REV_AT_EPOCH":8328,"BSTAR":9.9158e-5,"MEAN_MOTION_DOT":2.467e-5,"MEAN_MOTION_DDOT":0}]
